COSMOS 1933             
1 18958U 88020A   26012.74945380  .00004952  00000+0  24600-3 0  9994
2 18958  82.5147 306.2354 0005822  50.7670 309.4079 15.17438407 41743
SL-3 R/B                
1 19046U 88032B   26012.82427666  .00005184  00000+0  24761-3 0  9993
2 19046  97.5111 356.3427 0028330  70.2584 290.1702 15.19124061 43624
SL-16 R/B               
1 19120U 88039B   26012.75092854  .00000030  00000+0  36736-4 0  9993
2 19120  71.0133 186.8284 0019681  63.0118 297.3014 14.19604680950448
COSMOS 1953             
1 19210U 88050A   26012.82824302  .00006667  00000+0  24729-3 0  9995
2 19210  82.5072 214.3762 0011007 327.2894  32.7661 15.27361361 29256
SL-8 R/B                
1 19257U 88053B   26012.81786076  .00000124  00000+0  48792-4 0  9992
2 19257  74.0453 215.4418 0019300  48.0710 323.8369 14.38879629968562
COSMOS 1975             
1 19573U 88093A   26012.84774485  .00007258  00000+0  27226-3 0  9994
2 19573  82.5199 173.6743 0011891  12.8006 347.3532 15.26991636 10881
SL-14 R/B               
1 19574U 88093B   26012.70166879  .00000453  00000+0  49484-4 0  9993
2 19574  82.5313  94.6124 0019748 220.1703 255.3010 14.85590090992726
SL-16 R/B               
1 19650U 88102B   26012.75000645  .00000203  00000+0  12676-3 0  9997
2 19650  70.9992 269.1967 0011987  97.4857 262.7629 14.16142562918975
INTERCOSMOS 24          
1 20261U 89080A   26012.80536421  .00000433  00000+0  11871-3 0  9996
2 20261  82.6076 140.7592 1188984  62.4922 309.1914 12.59485802659768
SL-14 R/B               
1 20262U 89080C   26012.78619274  .00000249  00000+0  74643-4 0  9994
2 20262  82.5910 209.0844 1229830 312.6254  37.7281 12.50437776653165
DELTA 1 R/B             
1 20323U 89089B   26012.12840345  .00000425  00000+0  11434-3 0  9998
2 20323  97.0736 228.5481 0067812 302.1691  57.2941 14.50604281887530
ARIANE 40 R/B           
1 20443U 90005H   26012.73347226  .00000240  00000+0  90101-4 0  9992
2 20443  98.3198  75.0291 0010323  19.9859 340.1732 14.39825072884750
