CCSDS_OMM_VERS = 2.0
CREATION_DATE  = 
ORIGINATOR     = 

OBJECT_NAME    = COSMOS 1933
OBJECT_ID      = 1988-020A
CENTER_NAME    = EARTH
REF_FRAME      = TEME
TIME_SYSTEM    = UTC
MEAN_ELEMENT_THEORY = SGP/SGP4

EPOCH          = 2026-01-12T17:59:12.808320
MEAN_MOTION    = 15.17438407
ECCENTRICITY   = .0005822
INCLINATION    = 82.5147
RA_OF_ASC_NODE = 306.2354
ARG_OF_PERICENTER = 50.7670
MEAN_ANOMALY   = 309.4079

EPHEMERIS_TYPE = 0
CLASSIFICATION_TYPE = U
NORAD_CAT_ID   = 18958
ELEMENT_SET_NO = 999
REV_AT_EPOCH   = 4174
BSTAR          = .246E-3
MEAN_MOTION_DOT = .4952E-4
MEAN_MOTION_DDOT = 0

CCSDS_OMM_VERS = 2.0
CREATION_DATE  = 
ORIGINATOR     = 

OBJECT_NAME    = SL-3 R/B
OBJECT_ID      = 1988-032B
CENTER_NAME    = EARTH
REF_FRAME      = TEME
TIME_SYSTEM    = UTC
MEAN_ELEMENT_THEORY = SGP/SGP4

EPOCH          = 2026-01-12T19:46:57.503424
MEAN_MOTION    = 15.19124061
ECCENTRICITY   = .002833
INCLINATION    = 97.5111
RA_OF_ASC_NODE = 356.3427
ARG_OF_PERICENTER = 70.2584
MEAN_ANOMALY   = 290.1702

EPHEMERIS_TYPE = 0
CLASSIFICATION_TYPE = U
NORAD_CAT_ID   = 19046
ELEMENT_SET_NO = 999
REV_AT_EPOCH   = 4362
BSTAR          = .24761E-3
MEAN_MOTION_DOT = .5184E-4
MEAN_MOTION_DDOT = 0

CCSDS_OMM_VERS = 2.0
CREATION_DATE  = 
ORIGINATOR     = 

OBJECT_NAME    = SL-16 R/B
OBJECT_ID      = 1988-039B
CENTER_NAME    = EARTH
REF_FRAME      = TEME
TIME_SYSTEM    = UTC
MEAN_ELEMENT_THEORY = SGP/SGP4

EPOCH          = 2026-01-12T18:01:20.225856
MEAN_MOTION    = 14.19604680
ECCENTRICITY   = .0019681
INCLINATION    = 71.0133
RA_OF_ASC_NODE = 186.8284
ARG_OF_PERICENTER = 63.0118
MEAN_ANOMALY   = 297.3014

EPHEMERIS_TYPE = 0
CLASSIFICATION_TYPE = U
NORAD_CAT_ID   = 19120
ELEMENT_SET_NO = 999
REV_AT_EPOCH   = 95044
BSTAR          = .36736E-4
MEAN_MOTION_DOT = .3E-6
MEAN_MOTION_DDOT = 0

CCSDS_OMM_VERS = 2.0
CREATION_DATE  = 
ORIGINATOR     = 

OBJECT_NAME    = COSMOS 1953
OBJECT_ID      = 1988-050A
CENTER_NAME    = EARTH
REF_FRAME      = TEME
TIME_SYSTEM    = UTC
MEAN_ELEMENT_THEORY = SGP/SGP4

EPOCH          = 2026-01-12T19:52:40.196928
MEAN_MOTION    = 15.27361361
ECCENTRICITY   = .0011007
INCLINATION    = 82.5072
RA_OF_ASC_NODE = 214.3762
ARG_OF_PERICENTER = 327.2894
MEAN_ANOMALY   = 32.7661

EPHEMERIS_TYPE = 0
CLASSIFICATION_TYPE = U
NORAD_CAT_ID   = 19210
ELEMENT_SET_NO = 999
REV_AT_EPOCH   = 2925
BSTAR          = .24729E-3
MEAN_MOTION_DOT = .6667E-4
MEAN_MOTION_DDOT = 0

CCSDS_OMM_VERS = 2.0
CREATION_DATE  = 
ORIGINATOR     = 

OBJECT_NAME    = SL-8 R/B
OBJECT_ID      = 1988-053B
CENTER_NAME    = EARTH
REF_FRAME      = TEME
TIME_SYSTEM    = UTC
MEAN_ELEMENT_THEORY = SGP/SGP4

EPOCH          = 2026-01-12T19:37:43.169664
MEAN_MOTION    = 14.38879629
ECCENTRICITY   = .00193
INCLINATION    = 74.0453
RA_OF_ASC_NODE = 215.4418
ARG_OF_PERICENTER = 48.0710
MEAN_ANOMALY   = 323.8369

EPHEMERIS_TYPE = 0
CLASSIFICATION_TYPE = U
NORAD_CAT_ID   = 19257
ELEMENT_SET_NO = 999
REV_AT_EPOCH   = 96856
BSTAR          = .48792E-4
MEAN_MOTION_DOT = .124E-5
MEAN_MOTION_DDOT = 0

CCSDS_OMM_VERS = 2.0
CREATION_DATE  = 
ORIGINATOR     = 

OBJECT_NAME    = COSMOS 1975
OBJECT_ID      = 1988-093A
CENTER_NAME    = EARTH
REF_FRAME      = TEME
TIME_SYSTEM    = UTC
MEAN_ELEMENT_THEORY = SGP/SGP4

EPOCH          = 2026-01-12T20:20:45.155040
MEAN_MOTION    = 15.26991636
ECCENTRICITY   = .0011891
INCLINATION    = 82.5199
RA_OF_ASC_NODE = 173.6743
ARG_OF_PERICENTER = 12.8006
MEAN_ANOMALY   = 347.3532

EPHEMERIS_TYPE = 0
CLASSIFICATION_TYPE = U
NORAD_CAT_ID   = 19573
ELEMENT_SET_NO = 999
REV_AT_EPOCH   = 1088
BSTAR          = .27226E-3
MEAN_MOTION_DOT = .7258E-4
MEAN_MOTION_DDOT = 0

CCSDS_OMM_VERS = 2.0
CREATION_DATE  = 
ORIGINATOR     = 

OBJECT_NAME    = SL-14 R/B
OBJECT_ID      = 1988-093B
CENTER_NAME    = EARTH
REF_FRAME      = TEME
TIME_SYSTEM    = UTC
MEAN_ELEMENT_THEORY = SGP/SGP4

EPOCH          = 2026-01-12T16:50:24.183456
MEAN_MOTION    = 14.85590090
ECCENTRICITY   = .0019748
INCLINATION    = 82.5313
RA_OF_ASC_NODE = 94.6124
ARG_OF_PERICENTER = 220.1703
MEAN_ANOMALY   = 255.3010

EPHEMERIS_TYPE = 0
CLASSIFICATION_TYPE = U
NORAD_CAT_ID   = 19574
ELEMENT_SET_NO = 999
REV_AT_EPOCH   = 99272
BSTAR          = .49484E-4
MEAN_MOTION_DOT = .453E-5
MEAN_MOTION_DDOT = 0

CCSDS_OMM_VERS = 2.0
CREATION_DATE  = 
ORIGINATOR     = 

OBJECT_NAME    = SL-16 R/B
OBJECT_ID      = 1988-102B
CENTER_NAME    = EARTH
REF_FRAME      = TEME
TIME_SYSTEM    = UTC
MEAN_ELEMENT_THEORY = SGP/SGP4

EPOCH          = 2026-01-12T18:00:00.557280
MEAN_MOTION    = 14.16142562
ECCENTRICITY   = .0011987
INCLINATION    = 70.9992
RA_OF_ASC_NODE = 269.1967
ARG_OF_PERICENTER = 97.4857
MEAN_ANOMALY   = 262.7629

EPHEMERIS_TYPE = 0
CLASSIFICATION_TYPE = U
NORAD_CAT_ID   = 19650
ELEMENT_SET_NO = 999
REV_AT_EPOCH   = 91897
BSTAR          = .12676E-3
MEAN_MOTION_DOT = .203E-5
MEAN_MOTION_DDOT = 0

CCSDS_OMM_VERS = 2.0
CREATION_DATE  = 
ORIGINATOR     = 

OBJECT_NAME    = INTERCOSMOS 24
OBJECT_ID      = 1989-080A
CENTER_NAME    = EARTH
REF_FRAME      = TEME
TIME_SYSTEM    = UTC
MEAN_ELEMENT_THEORY = SGP/SGP4

EPOCH          = 2026-01-12T19:19:43.467744
MEAN_MOTION    = 12.59485802
ECCENTRICITY   = .1188984
INCLINATION    = 82.6076
RA_OF_ASC_NODE = 140.7592
ARG_OF_PERICENTER = 62.4922
MEAN_ANOMALY   = 309.1914

EPHEMERIS_TYPE = 0
CLASSIFICATION_TYPE = U
NORAD_CAT_ID   = 20261
ELEMENT_SET_NO = 999
REV_AT_EPOCH   = 65976
BSTAR          = .11871E-3
MEAN_MOTION_DOT = .433E-5
MEAN_MOTION_DDOT = 0

CCSDS_OMM_VERS = 2.0
CREATION_DATE  = 
ORIGINATOR     = 

OBJECT_NAME    = SL-14 R/B
OBJECT_ID      = 1989-080C
CENTER_NAME    = EARTH
REF_FRAME      = TEME
TIME_SYSTEM    = UTC
MEAN_ELEMENT_THEORY = SGP/SGP4

EPOCH          = 2026-01-12T18:52:07.052736
MEAN_MOTION    = 12.50437776
ECCENTRICITY   = .122983
INCLINATION    = 82.5910
RA_OF_ASC_NODE = 209.0844
ARG_OF_PERICENTER = 312.6254
MEAN_ANOMALY   = 37.7281

EPHEMERIS_TYPE = 0
CLASSIFICATION_TYPE = U
NORAD_CAT_ID   = 20262
ELEMENT_SET_NO = 999
REV_AT_EPOCH   = 65316
BSTAR          = .74643E-4
MEAN_MOTION_DOT = .249E-5
MEAN_MOTION_DDOT = 0

CCSDS_OMM_VERS = 2.0
CREATION_DATE  = 
ORIGINATOR     = 

OBJECT_NAME    = DELTA 1 R/B
OBJECT_ID      = 1989-089B
CENTER_NAME    = EARTH
REF_FRAME      = TEME
TIME_SYSTEM    = UTC
MEAN_ELEMENT_THEORY = SGP/SGP4

EPOCH          = 2026-01-12T03:04:54.058080
MEAN_MOTION    = 14.50604281
ECCENTRICITY   = .0067812
INCLINATION    = 97.0736
RA_OF_ASC_NODE = 228.5481
ARG_OF_PERICENTER = 302.1691
MEAN_ANOMALY   = 57.2941

EPHEMERIS_TYPE = 0
CLASSIFICATION_TYPE = U
NORAD_CAT_ID   = 20323
ELEMENT_SET_NO = 999
REV_AT_EPOCH   = 88753
BSTAR          = .11434083E-3
MEAN_MOTION_DOT = .425E-5
MEAN_MOTION_DDOT = 0

CCSDS_OMM_VERS = 2.0
CREATION_DATE  = 
ORIGINATOR     = 

OBJECT_NAME    = ARIANE 40 R/B
OBJECT_ID      = 1990-005H
CENTER_NAME    = EARTH
REF_FRAME      = TEME
TIME_SYSTEM    = UTC
MEAN_ELEMENT_THEORY = SGP/SGP4

EPOCH          = 2026-01-12T17:36:12.003264
MEAN_MOTION    = 14.39825072
ECCENTRICITY   = .0010323
INCLINATION    = 98.3198
RA_OF_ASC_NODE = 75.0291
ARG_OF_PERICENTER = 19.9859
MEAN_ANOMALY   = 340.1732

EPHEMERIS_TYPE = 0
CLASSIFICATION_TYPE = U
NORAD_CAT_ID   = 20443
ELEMENT_SET_NO = 999
REV_AT_EPOCH   = 88475
BSTAR          = .90101E-4
MEAN_MOTION_DOT = .24E-5
MEAN_MOTION_DDOT = 0

